[{"OBJECT_NAME":"ONEWEB-0302","OBJECT_ID":"2021-075S","EPOCH":"2026-03-09T21:21:46.698048","MEAN_MOTION":13.12443637,"ECCENTRICITY":0.00021292,"INCLINATION":87.9005,"RA_OF_ASC_NODE":10.3712,"ARG_OF_PERICENTER":76.5147,"MEAN_ANOMALY":283.6219,"EPHEMERIS_TYPE":0,"CLASSIFICATION_TYPE":"U","NORAD_CAT_ID":49091,"ELEMENT_SET_NO":999,"REV_AT_EPOCH":22152,"BSTAR":0.0010479271,"MEAN_MOTION_DOT":3.9e-6,"MEAN_MOTION_DDOT":0},{"OBJECT_NAME":"COSMOS 2499 DEB","OBJECT_ID":"2014-028AG","EPOCH":"2026-03-05T11:30:48.223584","MEAN_MOTION":12.79983383,"ECCENTRICITY":0.016248,"INCLINATION":82.5052,"RA_OF_ASC_NODE":341.8256,"ARG_OF_PERICENTER":261.0478,"MEAN_ANOMALY":97.2201,"EPHEMERIS_TYPE":0,"CLASSIFICATION_TYPE":"U","NORAD_CAT_ID":55720,"ELEMENT_SET_NO":999,"REV_AT_EPOCH":14561,"BSTAR":0.0050568,"MEAN_MOTION_DOT":1.225e-5,"MEAN_MOTION_DDOT":0}]
